#dP2022  4 24 18  0  0.00000000      96 __u+U ITR00 EXT  IAC
## 2207  64800.00000000   900.00000000 59693 0.7500000000000
+  117   C06C07C08C09C10C11C12C13C14C16C19C20C21C22C23C24C25
+        C26C27C28C29C30C32C33C34C35C36C37C38C39C40C41C42C43
+        C44C45C46E01E02E03E04E05E07E08E09E10E11E12E13E14E15
+        E18E19E21E24E25E26E27E30E31E33E34E36G01G02G03G04G05
+        G06G07G08G09G10G11G12G13G14G15G16G17G18G19G20G21G22
+        G23G24G25G26G27G28G29G30G31G32J02J03R01R02R03R04R05
+        R07R08R09R11R12R13R14R15R17R18R19R20R21R22R24  0  0
++        10 10  8 11  8  9  9  9  9  9  8  9  9  8  8  9  8
++         9  8  8  9 10 10  8  8  7  9  8  9 10 10  8  8  8
++         9  8  9  8  7  8  8  9  7  8  8  7  8  9  9  9 11
++         8  8  7  9  8 10  8  8  7  9  9  9  7  8  8  8  8
++         8  8  7  7  8  8  8  8  7  8  7  8  9  8  7  8  7
++         9  7  7  8  8  8  8  8  8  8 11 10  9  9  8  8  9
++         9  8  8  7  8  9  9  9  8  8  8  9  9  9  9  0  0
%c M  cc GPS ccc cccc cccc cccc cccc ccccc ccccc ccccc ccccc
%c cc cc ccc ccc cccc cccc cccc cccc ccccc ccccc ccccc ccccc
%f  0.0000000  0.000000000  0.00000000000  0.000000000000000
%f  0.0000000  0.000000000  0.00000000000  0.000000000000000
%i    0    0    0    0      0      0      0      0         0
%i    0    0    0    0      0      0      0      0         0
/* IAC                                ULTRA-RAPID PREDICTION
/* S/V CLOCKS ARE ALIGNED TO GNSS TIME                      
/* G:C1WC2W R:C1PC2P E:C1XC5X C:C2IC6I J:C1CC2S             
/* PCV:IGS14_2196 OL/AL:FES2004  NONE     YN ORB:CoN CLK:CoN
*  2022 04 25 17  0  0.00000000
PC06  -2380.476405  36155.712644  21762.219596   -137.484363
PC07 -13010.936311  25434.953324 -31047.789151    -85.645119
PC08 -18556.545456  36132.010456  11056.171671    279.070519
PC09   3839.225492  40109.141529  13606.760882   -729.382543
PC10  -3989.141746  26601.915363 -32245.985363    134.952192
PC11  17897.279777  10598.319406  18650.219331    313.758385
PC12  13328.029973  24262.533540   3523.137453   -624.460736
PC13 -10822.992107  36109.462905  18731.043884    -50.584324
PC14  27319.595868   4530.168636   3200.844226    462.921555
PC16  -3951.467487  34584.899828  24146.603620    124.003905
PC19 -27120.418864   2074.638287   6326.864741    875.267080
PC20 -24140.773385  -9291.814035 -10493.378874   -890.688456
PC21   6322.354461  15827.855321  22114.597689   -176.816001
PC22 -14578.972726  12669.714058  20160.668689   -971.210747
PC23  16355.447611 -22607.622949   -424.179856   -931.185843
PC24  12508.233754  10484.497951 -22645.589799   -956.978464
PC25  20545.783477 -10125.320357 -15962.089231   -745.806050
PC26  -1177.676303  22646.137886 -16253.187712    746.722677
PC27  -7794.292515 -26262.777858   5241.539728    713.416142
PC28   6073.061861 -19171.067985  19346.695436     59.454454
PC29 -16777.027992    969.969625 -22288.048229    546.181350
PC30 -17833.989119 -18154.903311 -11430.059429    497.516753
PC32  -6450.201973 -15772.746890 -22079.544108   -962.708262
PC33  27111.433242  -2153.050469  -6193.908733   -966.516516
PC34  18057.607768  17427.802946  12218.309743   -417.592513
PC35  -6157.411895  18712.072155 -19792.450449    245.217235
PC36 -20722.894108   9122.972271  16331.831528   -963.840642
PC37   2728.977119 -23099.072833  15445.287252   -918.989376
PC38 -22104.211459  35656.760612   3424.721744    227.683193
PC39  -7059.788157  30392.318449  28470.378993     34.954813
PC40 -18345.968928  18762.990936 -33066.242226    263.831700
PC41  14988.498337 -12536.408140 -19864.980657   -966.316836
PC42  23462.913705   9884.347988  11449.433987   -957.028266
PC43  17127.113662   -160.493028  22024.115729   -927.834674
PC44   8532.586357  26027.585090  -5455.203157    639.346553
PC45 -16189.442257  22716.136823    161.892006    740.662660
PC46 -13400.418284  -9032.493979  22750.264000   -291.026590
PE01 -27274.612331  11293.971040   2119.949984   -623.272165
PE02  27256.948484 -11399.212748  -1969.909500    295.133863
PE03  21354.537631  -2741.000566 -20304.071146   -551.744265
PE04  -4633.004663  17118.892121  23711.413177  -1014.310191
PE05  25858.745207  13548.079511  -4880.957618   -187.497806
PE07 -15271.200635 -21698.127565 -13119.350710   -662.194947
PE08   4157.840448 -17184.438016 -23734.138776   -518.409769
PE09  15486.874109  21567.389990  13077.734362   -496.602323
PE10  -1213.999903  29551.257342   1236.522218   -508.971448
PE11   5358.137862  26866.932223  11225.605388   3855.863333
PE12  -7432.949015  27422.270208  -8354.288809   4645.060767
PE13  -4984.113373 -27158.813318 -10645.890838    428.265841
PE14  -7479.433877 -22375.777037  12770.871321  -1826.711032
PE15   7421.743524 -27353.096189   8519.673793    749.507377
PE18  -4639.589357  20653.398812 -21358.633998  -1522.655999
PE19 -22680.537260    500.450771  19025.051545  -3613.346041
PE21 -23397.869636  -2393.652413  17964.324193   -730.536126
PE24   4568.366492  16232.475869 -24341.854335   -580.551723
PE25  23245.746890   2599.742997 -18142.054073   -571.681397
PE26 -14769.571567 -10002.357663 -23619.794926  -1071.761050
PE27  -5880.015695 -15618.117185  24446.121954   -284.398547
PE30  15935.993116 -19373.153943  15712.630899   -459.659212
PE31 -14930.460729  19527.968358 -16483.169436   -495.629700
PE33 -15385.847675  11436.364605 -22557.158372   -457.265384
PE34  15325.587823 -11668.668016  22466.823886   -513.881912
PE36  14366.156714  11038.210693  23411.164728   -364.740650
PG01  13277.108882 -17796.225652  14009.166447    376.922854
PG02 -14318.280163  -4240.456759 -21304.830162   -653.239147
PG03  21612.977758 -13092.594132  -8092.870598   -220.740948
PG04  12859.379086  -8594.614918 -21589.046109   -172.901518
PG05 -25309.440199   4218.627617  -7324.293978    -79.585612
PG06  -6863.974827 -19776.493302 -16234.674089    279.779524
PG07   4909.623873 -25821.681527    598.819163    321.095520
PG08  19542.007855     45.216287  18111.005831    -65.404587
PG09   2283.959878 -16979.282445 -20351.853322   -341.306757
PG10   5613.653730  13946.777778  22047.712557   -391.604428
PG11 -14289.602682  -5231.797980 -21770.679453    -34.011473
PG12 -24190.165440   9755.558180  -4912.326520   -205.825866
PG13 -20703.882912  -9822.087885  13422.101079    300.458181
PG14  -3854.599334 -14900.091271  21640.550928   -104.877170
PG15 -19335.275630   2856.212395  17711.103026    -66.161636
PG16  24415.369271   1981.746427 -11097.538783   -495.142828
PG17 -12097.853848 -21585.221784  10010.484821    604.831143
PG18  -5932.651020  25826.727166   -277.494739    186.488665
PG19 -16831.509934 -20545.364743   2168.814279    149.076559
PG20 -20997.203989  -2122.624503 -15979.148315    515.660174
PG21  15534.795826  -6992.485146  20857.207166    160.719619
PG22  18224.027234  19457.723382    492.610580    249.041832
PG23  -6823.757560  16746.238471  19410.344610    -17.560276
PG24 -14204.254987  14323.102795  16769.632433    251.413052
PG25 -13819.017233  16461.875103 -15710.943126    316.636858
PG26  16975.993718   8173.885174 -18922.541852    201.216800
PG27  22351.215413  11198.066170   9326.987318    191.087874
PG28 -12653.689051 -11636.400168  20699.336051    367.383222
PG29  -4140.231901  15836.647706 -20955.221220   -506.965372
PG30  -1268.514163 -24874.873908   8936.421475   -525.341847
PG31   8925.079229  17503.824189 -17779.130163   -174.958718
PG32  15147.411331  20513.867575   7911.469143   -113.120249
PJ02 -35195.272432  21233.507831  -4711.805485     -2.999699
PJ03 -19714.424101  25705.701685 -22409.614062     -1.748421
PR01 -24870.822938  -4713.801202   3222.826545      8.100077
PR02 -15276.545663   5303.712910  19753.998822    516.531172
PR03   2690.041524  11834.729052  22493.092827     55.540556
PR04  18830.329956  11561.684570  12784.672068    138.459838
PR05  24675.246866   5121.322237  -4001.682535     91.761568
PR07  -3405.910953 -11915.192445 -22243.839307     34.277434
PR08 -18978.703524 -11481.115401 -12512.424400    -64.797796
PR09  18149.565291 -17838.898835   -994.245077     51.682251
PR11  -6015.950122  -9366.161605  22957.986327     40.355396
PR12 -17860.778143   6188.164918  17140.375520     18.086089
PR13 -18594.640692  17311.268460   2265.843387    -21.437595
PR14  -8141.354546  18653.904877 -15377.958647     76.901023
PR15   6649.726957   8895.240654 -22946.813867     96.583505
PR17   2660.330413  24258.586048  -7366.135138    520.610073
PR18   9658.773509  21655.233522   9490.969794    114.731674
PR19  11442.508223   9089.131756  20903.920239   -186.728368
PR20   6874.306604 -12549.837874  21106.642626    -69.363862
PR21  -3318.611142 -24599.039159   5917.302682   -296.202831
PR22  -9749.311213 -21128.460087 -10346.444121   -179.183540
PR24  -6661.813752  13501.837830 -20576.698009     90.781824
EOF
